STARLINK-30309          
1 57632U 23122A   26068.41243341 -.00004488  00000+0 -15787-3 0  9993
2 57632  42.9987  94.1486 0001094 299.3962  60.6780 15.26712855142163
TRANSPORTER-13 OBJECT AH
1 63241U 25052AH  26068.64880921  .00014108  00000+0  55931-3 0  9999
2 63241  97.3962 323.1443 0008070 138.7508 221.4341 15.25468797 54753
